[{"OBJECT_NAME":"STARLINK-32142","OBJECT_ID":"2024-132P","EPOCH":"2026-03-09T05:29:21.462432","MEAN_MOTION":15.3020186,"ECCENTRICITY":0.00013548,"INCLINATION":53.1607,"RA_OF_ASC_NODE":54.294,"ARG_OF_PERICENTER":83.9682,"MEAN_ANOMALY":276.1473,"EPHEMERIS_TYPE":0,"CLASSIFICATION_TYPE":"U","NORAD_CAT_ID":60291,"ELEMENT_SET_NO":999,"REV_AT_EPOCH":9149,"BSTAR":-9.6060923e-5,"MEAN_MOTION_DOT":-3.203e-5,"MEAN_MOTION_DDOT":0},{"OBJECT_NAME":"NOAA 17 DEB","OBJECT_ID":"2002-032AF","EPOCH":"2026-03-09T00:24:06.552000","MEAN_MOTION":15.25501717,"ECCENTRICITY":0.00030847,"INCLINATION":98.6472,"RA_OF_ASC_NODE":92.5947,"ARG_OF_PERICENTER":165.9893,"MEAN_ANOMALY":194.1428,"EPHEMERIS_TYPE":0,"CLASSIFICATION_TYPE":"U","NORAD_CAT_ID":48614,"ELEMENT_SET_NO":999,"REV_AT_EPOCH":26420,"BSTAR":0.01090047,"MEAN_MOTION_DOT":0.00286783,"MEAN_MOTION_DDOT":0}]
